<?xml version="1.0" encoding="utf-8"?><gpx version="1.1" creator="MySchweizMobil - https://map.schweizmobil.ch/" xmlns:xsi="http://www.w3.org/2001/XMLSchema-instance" xmlns="http://www.topografix.com/GPX/1/1" xsi:schemaLocation="http://www.topografix.com/GPX/1/1 http://www.topografix.com/GPX/1/1/gpx.xsd"><metadata><name>241014_hegeloch</name><bounds minlat="46.87494017416611" minlon="7.778100117575377" maxlat="46.93970016064122" maxlon="7.814060189761221" /></metadata><trk><name>241014_hegeloch</name><trkseg><trkpt lat="46.87494917213917" lon="7.79595212591812"><ele>739.1999816894531</ele></trkpt><trkpt lat="46.87494017416611" lon="7.795950137544423"><ele>739.1999816894531</ele></trkpt><trkpt lat="46.875010170508176" lon="7.795920129399747"><ele>739.0999755859375</ele></trkpt><trkpt lat="46.87512016994879" lon="7.7957311370410025"><ele>738.5</ele></trkpt><trkpt lat="46.87518016714603" lon="7.795671127270907"><ele>738.2999877929688</ele></trkpt><trkpt lat="46.87568017048761" lon="7.795421133283526"><ele>736.1999816894531</ele></trkpt><trkpt lat="46.87576016737148" lon="7.7953601269982755"><ele>736.1999816894531</ele></trkpt><trkpt lat="46.87593017425388" lon="7.79517113417387"><ele>736.1999816894531</ele></trkpt><trkpt lat="46.876610171981156" lon="7.79634013492614"><ele>735.3999938964844</ele></trkpt><trkpt lat="46.87660117028281" lon="7.796440126840025"><ele>735.5</ele></trkpt><trkpt lat="46.876160169485956" lon="7.797520126216114"><ele>736.8999938964844</ele></trkpt><trkpt lat="46.87630117125809" lon="7.797730126418173"><ele>737.0</ele></trkpt><trkpt lat="46.87636016961187" lon="7.797860125079751"><ele>737.0</ele></trkpt><trkpt lat="46.876430173870176" lon="7.798020132817328"><ele>737.0999755859375</ele></trkpt><trkpt lat="46.87652016663924" lon="7.7983001340180635"><ele>737.1999816894531</ele></trkpt><trkpt lat="46.87656016787514" lon="7.798610131256282"><ele>737.1999816894531</ele></trkpt><trkpt lat="46.876560165546834" lon="7.798751137219369"><ele>737.0999755859375</ele></trkpt><trkpt lat="46.87650016928092" lon="7.799291133880615"><ele>737.3999938964844</ele></trkpt><trkpt lat="46.87650116626173" lon="7.799360128585249"><ele>737.5999755859375</ele></trkpt><trkpt lat="46.876530167646706" lon="7.799480129498988"><ele>738.0</ele></trkpt><trkpt lat="46.87657017027959" lon="7.799540136940777"><ele>738.1999816894531</ele></trkpt><trkpt lat="46.87689117016271" lon="7.799760126043111"><ele>738.7999877929688</ele></trkpt><trkpt lat="46.87695016618818" lon="7.799770136829466"><ele>738.3999938964844</ele></trkpt><trkpt lat="46.877030168194324" lon="7.799751126673073"><ele>738.3999938964844</ele></trkpt><trkpt lat="46.87701016990468" lon="7.799860136117786"><ele>738.6999816894531</ele></trkpt><trkpt lat="46.87759017571807" lon="7.8002311270684"><ele>750.3999938964844</ele></trkpt><trkpt lat="46.87777017662302" lon="7.800330132711679"><ele>754.1999816894531</ele></trkpt><trkpt lat="46.8779901759699" lon="7.800550136249512"><ele>760.3999938964844</ele></trkpt><trkpt lat="46.87804017169401" lon="7.801100133918226"><ele>764.7999877929688</ele></trkpt><trkpt lat="46.87819017795846" lon="7.801581134553999"><ele>769.1999816894531</ele></trkpt><trkpt lat="46.87822017306462" lon="7.801750131882727"><ele>770.5</ele></trkpt><trkpt lat="46.87823018152267" lon="7.801950138062239"><ele>772.1999816894531</ele></trkpt><trkpt lat="46.8781301737763" lon="7.802301143296063"><ele>774.6999816894531</ele></trkpt><trkpt lat="46.87813017470762" lon="7.802400134969503"><ele>775.1999816894531</ele></trkpt><trkpt lat="46.87801017658785" lon="7.802570139989257"><ele>776.5</ele></trkpt><trkpt lat="46.87784017715603" lon="7.80292013194412"><ele>778.5999755859375</ele></trkpt><trkpt lat="46.87772017903626" lon="7.803220137953758"><ele>780.6999816894531</ele></trkpt><trkpt lat="46.877681182697415" lon="7.803410142660141"><ele>782.0</ele></trkpt><trkpt lat="46.87766017857939" lon="7.803670137189329"><ele>783.2999877929688</ele></trkpt><trkpt lat="46.87765018362552" lon="7.804300142917782"><ele>786.7999877929688</ele></trkpt><trkpt lat="46.8776201820001" lon="7.804391137789935"><ele>787.0999755859375</ele></trkpt><trkpt lat="46.877650182228535" lon="7.804450137540698"><ele>787.1999816894531</ele></trkpt><trkpt lat="46.87770117679611" lon="7.804760142229497"><ele>789.0999755859375</ele></trkpt><trkpt lat="46.8777511799708" lon="7.804851143155247"><ele>790.5999755859375</ele></trkpt><trkpt lat="46.87811018060893" lon="7.805160135496408"><ele>802.5999755859375</ele></trkpt><trkpt lat="46.87821018649265" lon="7.805280141998082"><ele>807.1999816894531</ele></trkpt><trkpt lat="46.878271187189966" lon="7.805400145240128"><ele>808.7999877929688</ele></trkpt><trkpt lat="46.87836018996313" lon="7.80548114143312"><ele>812.6999816894531</ele></trkpt><trkpt lat="46.87865018937737" lon="7.805620139930397"><ele>819.1999816894531</ele></trkpt><trkpt lat="46.878861187491566" lon="7.8057011417113245"><ele>825.5</ele></trkpt><trkpt lat="46.87902019219473" lon="7.805709152016789"><ele>830.6999816894531</ele></trkpt><trkpt lat="46.87915018899366" lon="7.805691147223115"><ele>834.5</ele></trkpt><trkpt lat="46.87920019077137" lon="7.805650150869042"><ele>835.6999816894531</ele></trkpt><trkpt lat="46.879200192168355" lon="7.805540150497109"><ele>836.2999877929688</ele></trkpt><trkpt lat="46.87907018745318" lon="7.805381146725267"><ele>838.3999938964844</ele></trkpt><trkpt lat="46.879010192118585" lon="7.805290141142905"><ele>839.8999938964844</ele></trkpt><trkpt lat="46.87894019111991" lon="7.805090143810958"><ele>842.0999755859375</ele></trkpt><trkpt lat="46.87893019337207" lon="7.8049901514314115"><ele>843.5999755859375</ele></trkpt><trkpt lat="46.87896019080654" lon="7.804670143406838"><ele>849.1999816894531</ele></trkpt><trkpt lat="46.87905019847676" lon="7.804400144144893"><ele>855.6999816894531</ele></trkpt><trkpt lat="46.87910119537264" lon="7.804360150359571"><ele>857.8999938964844</ele></trkpt><trkpt lat="46.879220195580274" lon="7.8043601447716355"><ele>860.1999816894531</ele></trkpt><trkpt lat="46.879290190991014" lon="7.804410156328231"><ele>861.5999755859375</ele></trkpt><trkpt lat="46.8794401967898" lon="7.804591151420027"><ele>866.0999755859375</ele></trkpt><trkpt lat="46.87955019855872" lon="7.804640149697661"><ele>868.7999877929688</ele></trkpt><trkpt lat="46.879611196462065" lon="7.804640157148242"><ele>870.2999877929688</ele></trkpt><trkpt lat="46.879760194569826" lon="7.804590150248259"><ele>874.0999755859375</ele></trkpt><trkpt lat="46.880021199118346" lon="7.80442015780136"><ele>880.0999755859375</ele></trkpt><trkpt lat="46.88010019948706" lon="7.80439115036279"><ele>881.1999816894531</ele></trkpt><trkpt lat="46.880230204202235" lon="7.8043901566416025"><ele>882.8999938964844</ele></trkpt><trkpt lat="46.88033020403236" lon="7.804430153220892"><ele>884.0</ele></trkpt><trkpt lat="46.88055019965395" lon="7.8048401600681245"><ele>885.3999938964844</ele></trkpt><trkpt lat="46.88066020514816" lon="7.8050201535224915"><ele>887.7999877929688</ele></trkpt><trkpt lat="46.88091020146385" lon="7.805390160065144"><ele>896.0</ele></trkpt><trkpt lat="46.88103020237759" lon="7.805530158337206"><ele>899.7999877929688</ele></trkpt><trkpt lat="46.88126120204106" lon="7.805691156070679"><ele>904.5999755859375</ele></trkpt><trkpt lat="46.88144020549953" lon="7.805760162416846"><ele>906.2999877929688</ele></trkpt><trkpt lat="46.881510202307254" lon="7.805770163889974"><ele>907.0</ele></trkpt><trkpt lat="46.88178020529449" lon="7.805740163195878"><ele>911.2999877929688</ele></trkpt><trkpt lat="46.88192120241001" lon="7.805770157370716"><ele>913.8999938964844</ele></trkpt><trkpt lat="46.881970207206905" lon="7.805810164194554"><ele>915.0999755859375</ele></trkpt><trkpt lat="46.88218120718375" lon="7.806070160120726"><ele>918.5999755859375</ele></trkpt><trkpt lat="46.88229020871222" lon="7.806150157935917"><ele>921.2999877929688</ele></trkpt><trkpt lat="46.8824802134186" lon="7.806250165682286"><ele>925.5</ele></trkpt><trkpt lat="46.882650206796825" lon="7.806270164903253"><ele>927.0999755859375</ele></trkpt><trkpt lat="46.88299021171406" lon="7.806271160021424"><ele>931.7999877929688</ele></trkpt><trkpt lat="46.88357021659613" lon="7.806061161216348"><ele>944.8999938964844</ele></trkpt><trkpt lat="46.88403121428564" lon="7.805620172061026"><ele>958.6999816894531</ele></trkpt><trkpt lat="46.884330220520496" lon="7.805241167079657"><ele>968.5</ele></trkpt><trkpt lat="46.88449022034183" lon="7.805160164367408"><ele>972.0999755859375</ele></trkpt><trkpt lat="46.8846012162976" lon="7.805151171050966"><ele>974.6999816894531</ele></trkpt><trkpt lat="46.88465022249147" lon="7.805171171668917"><ele>975.5999755859375</ele></trkpt><trkpt lat="46.88467121915892" lon="7.805210162885487"><ele>976.3999938964844</ele></trkpt><trkpt lat="46.88465022109449" lon="7.805360165890306"><ele>978.0999755859375</ele></trkpt><trkpt lat="46.88454021746293" lon="7.805821163579822"><ele>982.8999938964844</ele></trkpt><trkpt lat="46.884510225150734" lon="7.8060801713727415"><ele>986.0999755859375</ele></trkpt><trkpt lat="46.88453122507781" lon="7.806191165931523"><ele>987.5999755859375</ele></trkpt><trkpt lat="46.88461122568697" lon="7.806240176782012"><ele>988.7999877929688</ele></trkpt><trkpt lat="46.88471021782607" lon="7.806221172213554"><ele>989.7999877929688</ele></trkpt><trkpt lat="46.88475022185594" lon="7.806170172058046"><ele>990.2999877929688</ele></trkpt><trkpt lat="46.88486122246832" lon="7.805980176664889"><ele>993.0</ele></trkpt><trkpt lat="46.88502022251487" lon="7.805790166370571"><ele>996.8999938964844</ele></trkpt><trkpt lat="46.88524022465572" lon="7.8056211695075035"><ele>1002.5999755859375</ele></trkpt><trkpt lat="46.88553022779524" lon="7.805430172942579"><ele>1011.6999816894531</ele></trkpt><trkpt lat="46.88563122600317" lon="7.805411180481315"><ele>1014.1999816894531</ele></trkpt><trkpt lat="46.885760228615254" lon="7.805490177124739"><ele>1017.6999816894531</ele></trkpt><trkpt lat="46.885890224482864" lon="7.805520176887512"><ele>1021.0</ele></trkpt><trkpt lat="46.886230232194066" lon="7.805450173094869"><ele>1030.2999877929688</ele></trkpt><trkpt lat="46.88626023102552" lon="7.805470176041126"><ele>1030.8999938964844</ele></trkpt><trkpt lat="46.8862802349031" lon="7.8056001788936555"><ele>1033.1999816894531</ele></trkpt><trkpt lat="46.88610023865476" lon="7.807320180814713"><ele>1057.8999938964844</ele></trkpt><trkpt lat="46.88608023803681" lon="7.807671185582876"><ele>1063.5999755859375</ele></trkpt><trkpt lat="46.886110234539956" lon="7.807851179968566"><ele>1066.6999816894531</ele></trkpt><trkpt lat="46.88639023900032" lon="7.808620187453926"><ele>1075.8999938964844</ele></trkpt><trkpt lat="46.886501242406666" lon="7.808751184027642"><ele>1079.0999755859375</ele></trkpt><trkpt lat="46.886670243460685" lon="7.808900186792016"><ele>1080.6999816894531</ele></trkpt><trkpt lat="46.886921238619834" lon="7.809310184791684"><ele>1080.0999755859375</ele></trkpt><trkpt lat="46.88697023643181" lon="7.809360183309764"><ele>1079.6999816894531</ele></trkpt><trkpt lat="46.88697123900056" lon="7.809420190751553"><ele>1080.0</ele></trkpt><trkpt lat="46.8870512410067" lon="7.809710182249546"><ele>1081.0999755859375</ele></trkpt><trkpt lat="46.887160239741206" lon="7.810401184018701"><ele>1083.2999877929688</ele></trkpt><trkpt lat="46.88729024073109" lon="7.81100018741563"><ele>1086.2999877929688</ele></trkpt><trkpt lat="46.88743124483153" lon="7.811520191375166"><ele>1090.5999755859375</ele></trkpt><trkpt lat="46.88757024332881" lon="7.811890188138932"><ele>1093.5</ele></trkpt><trkpt lat="46.888050239533186" lon="7.812750186771154"><ele>1091.7999877929688</ele></trkpt><trkpt lat="46.888170240446925" lon="7.812680193223059"><ele>1090.0999755859375</ele></trkpt><trkpt lat="46.888177239801735" lon="7.812688192818314"><ele>1090.0999755859375</ele></trkpt><trkpt lat="46.888177239801735" lon="7.812688192818314"><ele>1090.0999755859375</ele></trkpt><trkpt lat="46.888170240446925" lon="7.812680193223059"><ele>1090.0999755859375</ele></trkpt><trkpt lat="46.888400240801275" lon="7.8126201862469316"><ele>1088.1999816894531</ele></trkpt><trkpt lat="46.88866024138406" lon="7.812601180747151"><ele>1085.2999877929688</ele></trkpt><trkpt lat="46.88877023989335" lon="7.812691180035472"><ele>1085.0</ele></trkpt><trkpt lat="46.88935124594718" lon="7.813070190604776"><ele>1085.2999877929688</ele></trkpt><trkpt lat="46.889510239474475" lon="7.813191183842719"><ele>1085.2999877929688</ele></trkpt><trkpt lat="46.88963023945689" lon="7.813240185845643"><ele>1085.0999755859375</ele></trkpt><trkpt lat="46.88977023772895" lon="7.813250186853111"><ele>1085.2999877929688</ele></trkpt><trkpt lat="46.8899902375415" lon="7.813170180190355"><ele>1084.8999938964844</ele></trkpt><trkpt lat="46.8902002396062" lon="7.81305018812418"><ele>1084.8999938964844</ele></trkpt><trkpt lat="46.890400246251374" lon="7.8130711815319955"><ele>1085.1999816894531</ele></trkpt><trkpt lat="46.89056123746559" lon="7.8130211918614805"><ele>1086.1999816894531</ele></trkpt><trkpt lat="46.89062024606392" lon="7.812980190850794"><ele>1086.2999877929688</ele></trkpt><trkpt lat="46.890670243650675" lon="7.812930190935731"><ele>1086.7999877929688</ele></trkpt><trkpt lat="46.89083124184981" lon="7.812710185069591"><ele>1089.2999877929688</ele></trkpt><trkpt lat="46.89099024515599" lon="7.812580191530287"><ele>1089.8999938964844</ele></trkpt><trkpt lat="46.89132123859599" lon="7.812500189524144"><ele>1089.6999816894531</ele></trkpt><trkpt lat="46.89153124578297" lon="7.812381189316511"><ele>1091.5999755859375</ele></trkpt><trkpt lat="46.89163024676964" lon="7.812390182167292"><ele>1092.7999877929688</ele></trkpt><trkpt lat="46.891830248292536" lon="7.812581193167716"><ele>1095.3999938964844</ele></trkpt><trkpt lat="46.89187024673447" lon="7.812640190590173"><ele>1095.5</ele></trkpt><trkpt lat="46.89202024275437" lon="7.813131187576801"><ele>1093.2999877929688</ele></trkpt><trkpt lat="46.89214024320245" lon="7.813400193117559"><ele>1092.5999755859375</ele></trkpt><trkpt lat="46.89220024459064" lon="7.813490193337202"><ele>1091.5</ele></trkpt><trkpt lat="46.89246124448255" lon="7.81379019189626"><ele>1090.2999877929688</ele></trkpt><trkpt lat="46.89270024187863" lon="7.813900190871209"><ele>1089.0</ele></trkpt><trkpt lat="46.89292024355382" lon="7.8138801897875965"><ele>1087.3999938964844</ele></trkpt><trkpt lat="46.89309024158865" lon="7.813810185994953"><ele>1085.5</ele></trkpt><trkpt lat="46.89343024464324" lon="7.813781191594899"><ele>1087.0999755859375</ele></trkpt><trkpt lat="46.89352124556899" lon="7.813711188267916"><ele>1086.8999938964844</ele></trkpt><trkpt lat="46.893630240578204" lon="7.813530190847814"><ele>1086.5</ele></trkpt><trkpt lat="46.89381023822352" lon="7.813461186364293"><ele>1085.5</ele></trkpt><trkpt lat="46.89394124317914" lon="7.813440183643252"><ele>1085.5999755859375</ele></trkpt><trkpt lat="46.89412024570629" lon="7.813480191864073"><ele>1083.5999755859375</ele></trkpt><trkpt lat="46.894400238990784" lon="7.813440186437219"><ele>1078.0</ele></trkpt><trkpt lat="46.89458023943007" lon="7.813461187761277"><ele>1076.7999877929688</ele></trkpt><trkpt lat="46.89477023947984" lon="7.813301180955023"><ele>1073.3999938964844</ele></trkpt><trkpt lat="46.89510023826733" lon="7.813140178099275"><ele>1072.5</ele></trkpt><trkpt lat="46.89533024048433" lon="7.812950185965747"><ele>1071.6999816894531</ele></trkpt><trkpt lat="46.89550024131313" lon="7.812890188768506"><ele>1070.5</ele></trkpt><trkpt lat="46.89570023911074" lon="7.812850188929588"><ele>1068.3999938964844</ele></trkpt><trkpt lat="46.895810240879655" lon="7.812870177440345"><ele>1066.7999877929688</ele></trkpt><trkpt lat="46.89595123613253" lon="7.813040177803487"><ele>1063.7999877929688</ele></trkpt><trkpt lat="46.89634024025872" lon="7.813321178313345"><ele>1065.2999877929688</ele></trkpt><trkpt lat="46.89662023773417" lon="7.813580177724361"><ele>1064.6999816894531</ele></trkpt><trkpt lat="46.89680024050176" lon="7.813680180814117"><ele>1063.6999816894531</ele></trkpt><trkpt lat="46.89699023542926" lon="7.813720176927745"><ele>1063.0999755859375</ele></trkpt><trkpt lat="46.8971302411519" lon="7.813700180966407"><ele>1061.0999755859375</ele></trkpt><trkpt lat="46.8971902388148" lon="7.813670178875327"><ele>1060.1999816894531</ele></trkpt><trkpt lat="46.89722023671493" lon="7.813610178884119"><ele>1059.6999816894531</ele></trkpt><trkpt lat="46.8972302377224" lon="7.813550184015185"><ele>1059.5</ele></trkpt><trkpt lat="46.897420236840844" lon="7.813641176559031"><ele>1059.2999877929688</ele></trkpt><trkpt lat="46.897810236085206" lon="7.813730176072568"><ele>1057.8999938964844</ele></trkpt><trkpt lat="46.897920235060155" lon="7.813770180568099"><ele>1057.5</ele></trkpt><trkpt lat="46.89813023805618" lon="7.813900185748935"><ele>1057.1999816894531</ele></trkpt><trkpt lat="46.89835023600608" lon="7.813961180392653"><ele>1058.1999816894531</ele></trkpt><trkpt lat="46.89856023341417" lon="7.813980176579207"><ele>1059.3999938964844</ele></trkpt><trkpt lat="46.89866123627871" lon="7.8139711818657815"><ele>1060.7999877929688</ele></trkpt><trkpt lat="46.898751239757985" lon="7.813931178767234"><ele>1061.6999816894531</ele></trkpt><trkpt lat="46.8988202419132" lon="7.813860176131129"><ele>1062.1999816894531</ele></trkpt><trkpt lat="46.89900024142116" lon="7.813631177414209"><ele>1063.8999938964844</ele></trkpt><trkpt lat="46.89911023853347" lon="7.813570183701813"><ele>1064.5</ele></trkpt><trkpt lat="46.89929024130106" lon="7.813461184967309"><ele>1065.5</ele></trkpt><trkpt lat="46.8995702364482" lon="7.813341188244522"><ele>1068.0999755859375</ele></trkpt><trkpt lat="46.89965023892" lon="7.813350182957947"><ele>1068.5</ele></trkpt><trkpt lat="46.89972023572773" lon="7.813401183113456"><ele>1067.7999877929688</ele></trkpt><trkpt lat="46.8998512388207" lon="7.813430178910494"><ele>1066.6999816894531</ele></trkpt><trkpt lat="46.900220235809684" lon="7.8135901796631515"><ele>1066.6999816894531</ele></trkpt><trkpt lat="46.90034024277702" lon="7.813670178409666"><ele>1068.5</ele></trkpt><trkpt lat="46.900611244142056" lon="7.8140201778151095"><ele>1074.5</ele></trkpt><trkpt lat="46.90077123930678" lon="7.814060179516673"><ele>1075.1999816894531</ele></trkpt><trkpt lat="46.90091023547575" lon="7.814060189761221"><ele>1075.6999816894531</ele></trkpt><trkpt lat="46.90112023986876" lon="7.814000180456787"><ele>1076.5999755859375</ele></trkpt><trkpt lat="46.901720236986876" lon="7.8136211866512895"><ele>1075.2999877929688</ele></trkpt><trkpt lat="46.901810239069164" lon="7.813540180213749"><ele>1073.7999877929688</ele></trkpt><trkpt lat="46.90181124256924" lon="7.813544190023094"><ele>1073.7999877929688</ele></trkpt><trkpt lat="46.90181124256924" lon="7.813544190023094"><ele>1073.7999877929688</ele></trkpt><trkpt lat="46.901810239069164" lon="7.813540180213749"><ele>1073.7999877929688</ele></trkpt><trkpt lat="46.90187023766339" lon="7.813430183101445"><ele>1072.5</ele></trkpt><trkpt lat="46.90193124208599" lon="7.813100177794695"><ele>1069.5999755859375</ele></trkpt><trkpt lat="46.90199124021456" lon="7.812910187523812"><ele>1068.3999938964844</ele></trkpt><trkpt lat="46.90213023964316" lon="7.81260018562898"><ele>1064.5999755859375</ele></trkpt><trkpt lat="46.90225023543462" lon="7.812421188224107"><ele>1061.8999938964844</ele></trkpt><trkpt lat="46.90233123488724" lon="7.8123201807029545"><ele>1060.5</ele></trkpt><trkpt lat="46.90250023966655" lon="7.812201185617596"><ele>1058.1999816894531</ele></trkpt><trkpt lat="46.90287023130804" lon="7.812100185081363"><ele>1053.0999755859375</ele></trkpt><trkpt lat="46.90310023305938" lon="7.812100178096443"><ele>1050.2999877929688</ele></trkpt><trkpt lat="46.903191237710416" lon="7.812070176471025"><ele>1050.5</ele></trkpt><trkpt lat="46.90336023084819" lon="7.812090181745589"><ele>1050.5</ele></trkpt><trkpt lat="46.90353023633361" lon="7.812150184530765"><ele>1050.3999938964844</ele></trkpt><trkpt lat="46.903601235710084" lon="7.812120175454766"><ele>1050.3999938964844</ele></trkpt><trkpt lat="46.9036302305758" lon="7.812050185631961"><ele>1050.3999938964844</ele></trkpt><trkpt lat="46.903850238304585" lon="7.81114018522203"><ele>1047.7999877929688</ele></trkpt><trkpt lat="46.90398023230955" lon="7.8105211751535535"><ele>1045.6999816894531</ele></trkpt><trkpt lat="46.90403023222461" lon="7.810370178427547"><ele>1045.2999877929688</ele></trkpt><trkpt lat="46.90411023143679" lon="7.810230177361518"><ele>1044.7999877929688</ele></trkpt><trkpt lat="46.9042702303268" lon="7.810061182826757"><ele>1043.6999816894531</ele></trkpt><trkpt lat="46.904410233255476" lon="7.809950179886073"><ele>1042.8999938964844</ele></trkpt><trkpt lat="46.904741236474365" lon="7.809830176178366"><ele>1042.0</ele></trkpt><trkpt lat="46.90489023318514" lon="7.80980017548427"><ele>1041.6999816894531</ele></trkpt><trkpt lat="46.905980232637376" lon="7.80977017339319"><ele>1040.6999816894531</ele></trkpt><trkpt lat="46.906230233144015" lon="7.8097501732409"><ele>1040.5</ele></trkpt><trkpt lat="46.906330230180174" lon="7.809690183959901"><ele>1040.3999938964844</ele></trkpt><trkpt lat="46.906380229629576" lon="7.80960017349571"><ele>1040.2999877929688</ele></trkpt><trkpt lat="46.90641023591161" lon="7.809431180823594"><ele>1039.3999938964844</ele></trkpt><trkpt lat="46.90645022876561" lon="7.808860174845904"><ele>1036.1999816894531</ele></trkpt><trkpt lat="46.90644123032689" lon="7.807870171498507"><ele>1029.6999816894531</ele></trkpt><trkpt lat="46.9064702289179" lon="7.806720180436969"><ele>1021.3999938964844</ele></trkpt><trkpt lat="46.90649023046717" lon="7.806581174954772"><ele>1020.5</ele></trkpt><trkpt lat="46.906541225500405" lon="7.806421170476824"><ele>1019.3999938964844</ele></trkpt><trkpt lat="46.90675023198128" lon="7.806070179212838"><ele>1016.0</ele></trkpt><trkpt lat="46.90675823157653" lon="7.8060721764341"><ele>1016.0</ele></trkpt><trkpt lat="46.90675823157653" lon="7.8060721764341"><ele>1016.0</ele></trkpt><trkpt lat="46.90675023198128" lon="7.806070179212838"><ele>1016.0</ele></trkpt><trkpt lat="46.90701023163274" lon="7.8057811697945"><ele>1013.2999877929688</ele></trkpt><trkpt lat="46.90708022983745" lon="7.805650169029832"><ele>1013.1999816894531</ele></trkpt><trkpt lat="46.90721022663638" lon="7.80549117224291"><ele>1014.1999816894531</ele></trkpt><trkpt lat="46.90733022475615" lon="7.805370171554387"><ele>1015.6999816894531</ele></trkpt><trkpt lat="46.90795023133978" lon="7.8050601771101356"><ele>1023.8999938964844</ele></trkpt><trkpt lat="46.908050233498216" lon="7.80504017136991"><ele>1025.5</ele></trkpt><trkpt lat="46.908170230686665" lon="7.805060177575797"><ele>1027.3999938964844</ele></trkpt><trkpt lat="46.908510230947286" lon="7.805231171660125"><ele>1033.0</ele></trkpt><trkpt lat="46.90879022795707" lon="7.805330183357"><ele>1037.5999755859375</ele></trkpt><trkpt lat="46.90901023475453" lon="7.805401183664799"><ele>1041.0</ele></trkpt><trkpt lat="46.9091612379998" lon="7.805410179775208"><ele>1043.3999938964844</ele></trkpt><trkpt lat="46.90958023071289" lon="7.805360174737871"><ele>1049.8999938964844</ele></trkpt><trkpt lat="46.909730239305645" lon="7.805320176761597"><ele>1052.0</ele></trkpt><trkpt lat="46.910030238330364" lon="7.80518117826432"><ele>1056.0</ele></trkpt><trkpt lat="46.910101239569485" lon="7.805130180437118"><ele>1056.7999877929688</ele></trkpt><trkpt lat="46.9101402387023" lon="7.805061178281903"><ele>1056.6999816894531</ele></trkpt><trkpt lat="46.91018123738468" lon="7.80489018606022"><ele>1058.0</ele></trkpt><trkpt lat="46.910360240377486" lon="7.803260185755789"><ele>1069.2999877929688</ele></trkpt><trkpt lat="46.91043024370447" lon="7.802801186218858"><ele>1072.2999877929688</ele></trkpt><trkpt lat="46.91051024245098" lon="7.802460180129856"><ele>1075.2999877929688</ele></trkpt><trkpt lat="46.910620239563286" lon="7.802190179005265"><ele>1079.5</ele></trkpt><trkpt lat="46.91072023799643" lon="7.801910186186433"><ele>1083.1999816894531</ele></trkpt><trkpt lat="46.91085124295205" lon="7.801280187442899"><ele>1086.1999816894531</ele></trkpt><trkpt lat="46.91132023790851" lon="7.800340187735856"><ele>1071.3999938964844</ele></trkpt><trkpt lat="46.91144023556262" lon="7.7999801826663315"><ele>1066.7999877929688</ele></trkpt><trkpt lat="46.911531237419695" lon="7.799561188090593"><ele>1062.1999816894531</ele></trkpt><trkpt lat="46.911720238626" lon="7.799100185744464"><ele>1057.5</ele></trkpt><trkpt lat="46.911781235132366" lon="7.799020180013031"><ele>1056.7999877929688</ele></trkpt><trkpt lat="46.9118602364324" lon="7.798781186342239"><ele>1058.3999938964844</ele></trkpt><trkpt lat="46.9120312333107" lon="7.798450184985995"><ele>1061.0999755859375</ele></trkpt><trkpt lat="46.91217023553327" lon="7.79823017725721"><ele>1062.1999816894531</ele></trkpt><trkpt lat="46.91249023610726" lon="7.797911178786308"><ele>1060.2999877929688</ele></trkpt><trkpt lat="46.91257123509422" lon="7.797780187800527"><ele>1060.3999938964844</ele></trkpt><trkpt lat="46.912821234203875" lon="7.796960176434368"><ele>1062.0</ele></trkpt><trkpt lat="46.91293023759499" lon="7.79654018394649"><ele>1063.8999938964844</ele></trkpt><trkpt lat="46.91295023774728" lon="7.796340183354914"><ele>1064.0999755859375</ele></trkpt><trkpt lat="46.91293023573235" lon="7.795770184602588"><ele>1064.0999755859375</ele></trkpt><trkpt lat="46.91288124118" lon="7.7953211814165115"><ele>1064.5999755859375</ele></trkpt><trkpt lat="46.912830241024494" lon="7.794480184093118"><ele>1066.3999938964844</ele></trkpt><trkpt lat="46.91295024147257" lon="7.794540179427713"><ele>1066.6999816894531</ele></trkpt><trkpt lat="46.913111242465675" lon="7.794800186064094"><ele>1067.0999755859375</ele></trkpt><trkpt lat="46.91318124206737" lon="7.794850176665932"><ele>1067.3999938964844</ele></trkpt><trkpt lat="46.91335123637691" lon="7.794870177749544"><ele>1067.2999877929688</ele></trkpt><trkpt lat="46.91361023951322" lon="7.7946901852265"><ele>1067.3999938964844</ele></trkpt><trkpt lat="46.91383023420349" lon="7.7944911872036755"><ele>1063.0999755859375</ele></trkpt><trkpt lat="46.91395023884252" lon="7.794451180379838"><ele>1062.6999816894531</ele></trkpt><trkpt lat="46.91407124185935" lon="7.7944401782006025"><ele>1062.5</ele></trkpt><trkpt lat="46.91423023631796" lon="7.794300176203251"><ele>1061.8999938964844</ele></trkpt><trkpt lat="46.914540234953165" lon="7.793890182394534"><ele>1061.0999755859375</ele></trkpt><trkpt lat="46.91502023395151" lon="7.7930901842191815"><ele>1055.5</ele></trkpt><trkpt lat="46.91531023429707" lon="7.792740182485431"><ele>1050.0</ele></trkpt><trkpt lat="46.915500237140805" lon="7.792590175755322"><ele>1047.2999877929688</ele></trkpt><trkpt lat="46.91562022967264" lon="7.792501184158027"><ele>1045.5</ele></trkpt><trkpt lat="46.915951238013804" lon="7.792440174613148"><ele>1041.2999877929688</ele></trkpt><trkpt lat="46.91609022952616" lon="7.792450184933841"><ele>1041.5999755859375</ele></trkpt><trkpt lat="46.916341237258166" lon="7.792560176923871"><ele>1040.5</ele></trkpt><trkpt lat="46.91638023406267" lon="7.792530173435807"><ele>1037.7999877929688</ele></trkpt><trkpt lat="46.91641023103148" lon="7.792481180280447"><ele>1035.0999755859375</ele></trkpt><trkpt lat="46.91642123181373" lon="7.79229117417708"><ele>1027.3999938964844</ele></trkpt><trkpt lat="46.916670228820294" lon="7.792280179448426"><ele>1024.7999877929688</ele></trkpt><trkpt lat="46.9168002307415" lon="7.792221169918776"><ele>1024.0999755859375</ele></trkpt><trkpt lat="46.917191228829324" lon="7.792011180892587"><ele>1021.8999938964844</ele></trkpt><trkpt lat="46.91746022552252" lon="7.79178017238155"><ele>1020.7999877929688</ele></trkpt><trkpt lat="46.91767122736201" lon="7.791520175524056"><ele>1019.7999877929688</ele></trkpt><trkpt lat="46.918121225666255" lon="7.790841178968549"><ele>1015.1999816894531</ele></trkpt><trkpt lat="46.91830023191869" lon="7.790630170609802"><ele>1014.0</ele></trkpt><trkpt lat="46.91845023166388" lon="7.790500170085579"><ele>1014.0</ele></trkpt><trkpt lat="46.91856023063883" lon="7.790440170094371"><ele>1014.0</ele></trkpt><trkpt lat="46.91868123225868" lon="7.790400170721114"><ele>1014.1999816894531</ele></trkpt><trkpt lat="46.918810225091875" lon="7.79040017304942"><ele>1014.0999755859375</ele></trkpt><trkpt lat="46.91920023225248" lon="7.79048017738387"><ele>1013.3999938964844</ele></trkpt><trkpt lat="46.919450224842876" lon="7.7900801710784435"><ele>1020.5</ele></trkpt><trkpt lat="46.91997023113072" lon="7.789561175275594"><ele>1020.8999938964844</ele></trkpt><trkpt lat="46.920351224485785" lon="7.7894001780077815"><ele>1018.1999816894531</ele></trkpt><trkpt lat="46.92084122495726" lon="7.789150178432465"><ele>1017.0999755859375</ele></trkpt><trkpt lat="46.92105022538453" lon="7.789090174250305"><ele>1017.0</ele></trkpt><trkpt lat="46.92112122522667" lon="7.789090176578611"><ele>1016.8999938964844</ele></trkpt><trkpt lat="46.92120022838935" lon="7.789141171146184"><ele>1016.7999877929688</ele></trkpt><trkpt lat="46.92128023225814" lon="7.789200168568641"><ele>1017.1999816894531</ele></trkpt><trkpt lat="46.921390229370445" lon="7.7893701693974435"><ele>1017.3999938964844</ele></trkpt><trkpt lat="46.921550230588764" lon="7.789540168829262"><ele>1016.1999816894531</ele></trkpt><trkpt lat="46.921811224427074" lon="7.789950170088559"><ele>1012.7999877929688</ele></trkpt><trkpt lat="46.9219412272796" lon="7.790090173482895"><ele>1011.2999877929688</ele></trkpt><trkpt lat="46.922030228190124" lon="7.790160167962313"><ele>1010.0999755859375</ele></trkpt><trkpt lat="46.92215122887865" lon="7.7902201702818274"><ele>1009.0</ele></trkpt><trkpt lat="46.92240122333169" lon="7.790250173769891"><ele>1005.0999755859375</ele></trkpt><trkpt lat="46.922490226104856" lon="7.7902901684865355"><ele>1003.0999755859375</ele></trkpt><trkpt lat="46.9222302287817" lon="7.790010171476752"><ele>1003.0</ele></trkpt><trkpt lat="46.9220902249217" lon="7.789790171664208"><ele>1004.5999755859375</ele></trkpt><trkpt lat="46.92181022837758" lon="7.78886017203331"><ele>1005.5</ele></trkpt><trkpt lat="46.921700227074325" lon="7.7883901707828045"><ele>1001.3999938964844</ele></trkpt><trkpt lat="46.9216902279295" lon="7.788061169907451"><ele>999.1999816894531</ele></trkpt><trkpt lat="46.921710225753486" lon="7.78796016657725"><ele>998.2999877929688</ele></trkpt><trkpt lat="46.92179022496566" lon="7.787861166521907"><ele>995.6999816894531</ele></trkpt><trkpt lat="46.92189021920785" lon="7.787860173266381"><ele>992.8999938964844</ele></trkpt><trkpt lat="46.92194022471085" lon="7.78791016433388"><ele>990.6999816894531</ele></trkpt><trkpt lat="46.92207021918148" lon="7.788260163273662"><ele>985.0</ele></trkpt><trkpt lat="46.9221002231352" lon="7.787830167450011"><ele>983.0999755859375</ele></trkpt><trkpt lat="46.92224022001028" lon="7.786570172291249"><ele>974.7999877929688</ele></trkpt><trkpt lat="46.92265121592209" lon="7.786730168387294"><ele>974.8999938964844</ele></trkpt><trkpt lat="46.92269022250548" lon="7.786720166448504"><ele>974.6999816894531</ele></trkpt><trkpt lat="46.92284022318199" lon="7.786600161809474"><ele>973.3999938964844</ele></trkpt><trkpt lat="46.92294121813029" lon="7.7866401630453765"><ele>973.0999755859375</ele></trkpt><trkpt lat="46.92301021609455" lon="7.786600170191377"><ele>972.0999755859375</ele></trkpt><trkpt lat="46.923201215453446" lon="7.786611171904951"><ele>968.6999816894531</ele></trkpt><trkpt lat="46.92372021917254" lon="7.786120169330388"><ele>958.5</ele></trkpt><trkpt lat="46.92409021174535" lon="7.785850168205798"><ele>955.3999938964844</ele></trkpt><trkpt lat="46.92445021867752" lon="7.785610166378319"><ele>953.7999877929688</ele></trkpt><trkpt lat="46.92462021112442" lon="7.785500169731677"><ele>951.8999938964844</ele></trkpt><trkpt lat="46.924710212275386" lon="7.7854811595752835"><ele>950.5999755859375</ele></trkpt><trkpt lat="46.92480121040717" lon="7.785510158166289"><ele>947.0999755859375</ele></trkpt><trkpt lat="46.92488021263853" lon="7.785511165391654"><ele>945.2999877929688</ele></trkpt><trkpt lat="46.92493020929396" lon="7.785481157246977"><ele>943.6999816894531</ele></trkpt><trkpt lat="46.92495021224022" lon="7.78544016322121"><ele>942.1999816894531</ele></trkpt><trkpt lat="46.92496020998806" lon="7.785230162087828"><ele>938.2999877929688</ele></trkpt><trkpt lat="46.925000216346234" lon="7.785160161554813"><ele>935.7999877929688</ele></trkpt><trkpt lat="46.9251402085647" lon="7.785020164214075"><ele>929.8999938964844</ele></trkpt><trkpt lat="46.925160211510956" lon="7.784970162436366"><ele>927.3999938964844</ele></trkpt><trkpt lat="46.92516021244228" lon="7.784940160810947"><ele>927.5</ele></trkpt><trkpt lat="46.92521021142602" lon="7.784930161666125"><ele>926.7999877929688</ele></trkpt><trkpt lat="46.92522021243349" lon="7.784850159659982"><ele>925.0999755859375</ele></trkpt><trkpt lat="46.92530021071434" lon="7.784810154233128"><ele>922.1999816894531</ele></trkpt><trkpt lat="46.92532021086663" lon="7.784671156667173"><ele>915.1999816894531</ele></trkpt><trkpt lat="46.925280208699405" lon="7.78447115374729"><ele>912.3999938964844</ele></trkpt><trkpt lat="46.92528021009639" lon="7.784330164082348"><ele>909.1999816894531</ele></trkpt><trkpt lat="46.92526020901278" lon="7.784140162635595"><ele>904.3999938964844</ele></trkpt><trkpt lat="46.925270206294954" lon="7.784040150232613"><ele>901.5</ele></trkpt><trkpt lat="46.92535020504147" lon="7.783820157404989"><ele>893.0</ele></trkpt><trkpt lat="46.92532020621002" lon="7.783730155788362"><ele>890.6999816894531</ele></trkpt><trkpt lat="46.92527020117268" lon="7.783700148575008"><ele>889.3999938964844</ele></trkpt><trkpt lat="46.925230202265084" lon="7.783630158752203"><ele>886.1999816894531</ele></trkpt><trkpt lat="46.92525019869208" lon="7.783600153401494"><ele>885.2999877929688</ele></trkpt><trkpt lat="46.92536020511761" lon="7.783590157050639"><ele>884.2999877929688</ele></trkpt><trkpt lat="46.9253701986745" lon="7.783560153096914"><ele>882.6999816894531</ele></trkpt><trkpt lat="46.9253502022475" lon="7.783521146979183"><ele>881.3999938964844</ele></trkpt><trkpt lat="46.925160197075456" lon="7.783430147450417"><ele>875.7999877929688</ele></trkpt><trkpt lat="46.92515120143071" lon="7.783400153275579"><ele>874.5</ele></trkpt><trkpt lat="46.92516020266339" lon="7.783341152127832"><ele>871.5999755859375</ele></trkpt><trkpt lat="46.925210195127875" lon="7.783231154084206"><ele>867.5</ele></trkpt><trkpt lat="46.925321196671575" lon="7.783090151846409"><ele>862.2999877929688</ele></trkpt><trkpt lat="46.92540119495243" lon="7.783110148273408"><ele>862.5999755859375</ele></trkpt><trkpt lat="46.92545019509271" lon="7.783160145394504"><ele>863.0999755859375</ele></trkpt><trkpt lat="46.925580193754286" lon="7.783430155366659"><ele>861.8999938964844</ele></trkpt><trkpt lat="46.92562019824982" lon="7.783480147831142"><ele>862.0999755859375</ele></trkpt><trkpt lat="46.925670200027525" lon="7.783490144647658"><ele>862.0</ele></trkpt><trkpt lat="46.92571019940078" lon="7.783470154274255"><ele>861.5999755859375</ele></trkpt><trkpt lat="46.9259511991404" lon="7.78330015251413"><ele>860.5999755859375</ele></trkpt><trkpt lat="46.926041200291365" lon="7.783281151205301"><ele>860.6999816894531</ele></trkpt><trkpt lat="46.9261001967825" lon="7.783321155700833"><ele>860.2999877929688</ele></trkpt><trkpt lat="46.926230194978416" lon="7.783690144307911"><ele>861.5</ele></trkpt><trkpt lat="46.92629019310698" lon="7.783741145860404"><ele>861.5999755859375</ele></trkpt><trkpt lat="46.926421197131276" lon="7.783760143909603"><ele>860.3999938964844</ele></trkpt><trkpt lat="46.92651119828224" lon="7.783741143532097"><ele>859.6999816894531</ele></trkpt><trkpt lat="46.926590194925666" lon="7.783690152689815"><ele>859.3999938964844</ele></trkpt><trkpt lat="46.9266401976347" lon="7.783610154874623"><ele>858.5999755859375</ele></trkpt><trkpt lat="46.92669119592756" lon="7.783420145045966"><ele>857.7999877929688</ele></trkpt><trkpt lat="46.92682019248605" lon="7.7832901533693075"><ele>858.5999755859375</ele></trkpt><trkpt lat="46.92693019611761" lon="7.783230156172067"><ele>858.8999938964844</ele></trkpt><trkpt lat="46.92709019547328" lon="7.783230155240744"><ele>857.7999877929688</ele></trkpt><trkpt lat="46.92733019776642" lon="7.7834011521190405"><ele>857.1999816894531</ele></trkpt><trkpt lat="46.92772019142285" lon="7.7838101433590055"><ele>855.5</ele></trkpt><trkpt lat="46.92801019176841" lon="7.783980152569711"><ele>855.0999755859375</ele></trkpt><trkpt lat="46.928281197324395" lon="7.78382915398106"><ele>854.1999816894531</ele></trkpt><trkpt lat="46.92857019091025" lon="7.783810153603554"><ele>846.5999755859375</ele></trkpt><trkpt lat="46.92861119285226" lon="7.783570149447769"><ele>844.6999816894531</ele></trkpt><trkpt lat="46.928830187767744" lon="7.783020149450749"><ele>839.3999938964844</ele></trkpt><trkpt lat="46.92894018953666" lon="7.783221149351448"><ele>833.1999816894531</ele></trkpt><trkpt lat="46.92897018790245" lon="7.7832901468500495"><ele>831.8999938964844</ele></trkpt><trkpt lat="46.92899019038305" lon="7.783321145456284"><ele>831.8999938964844</ele></trkpt><trkpt lat="46.929021194111556" lon="7.783310143277049"><ele>830.7999877929688</ele></trkpt><trkpt lat="46.92925018724054" lon="7.783010148443282"><ele>826.3999938964844</ele></trkpt><trkpt lat="46.92934019071981" lon="7.782930138986558"><ele>822.5999755859375</ele></trkpt><trkpt lat="46.92943018535152" lon="7.782880146522075"><ele>820.8999938964844</ele></trkpt><trkpt lat="46.93000018782914" lon="7.782760146073997"><ele>810.1999816894531</ele></trkpt><trkpt lat="46.93008018285036" lon="7.7827601451426744"><ele>809.8999938964844</ele></trkpt><trkpt lat="46.93031018320471" lon="7.782841136213392"><ele>805.5</ele></trkpt><trkpt lat="46.93042018264532" lon="7.782740138005465"><ele>802.7999877929688</ele></trkpt><trkpt lat="46.93047018162906" lon="7.782670139335096"><ele>802.1999816894531</ele></trkpt><trkpt lat="46.93046018155292" lon="7.782561139203608"><ele>802.6999816894531</ele></trkpt><trkpt lat="46.93079018127173" lon="7.7823601444251835"><ele>797.3999938964844</ele></trkpt><trkpt lat="46.930861183442175" lon="7.782260142732412"><ele>795.8999938964844</ele></trkpt><trkpt lat="46.931051187217236" lon="7.782210142351687"><ele>793.3999938964844</ele></trkpt><trkpt lat="46.93118018517271" lon="7.782220143824816"><ele>792.0</ele></trkpt><trkpt lat="46.931651178281754" lon="7.7821901361458"><ele>791.0</ele></trkpt><trkpt lat="46.93184018135071" lon="7.782231143210083"><ele>790.1999816894531</ele></trkpt><trkpt lat="46.93245018366724" lon="7.782751135062426"><ele>779.0</ele></trkpt><trkpt lat="46.93262017890811" lon="7.782861135434359"><ele>776.1999816894531</ele></trkpt><trkpt lat="46.932800183072686" lon="7.782930137589574"><ele>774.0999755859375</ele></trkpt><trkpt lat="46.933000177610666" lon="7.782950141467154"><ele>770.8999938964844</ele></trkpt><trkpt lat="46.93327017268166" lon="7.783060139510781"><ele>765.1999816894531</ele></trkpt><trkpt lat="46.93338017584756" lon="7.783150139730424"><ele>763.7999877929688</ele></trkpt><trkpt lat="46.93394017033279" lon="7.783490137662739"><ele>753.5999755859375</ele></trkpt><trkpt lat="46.93404017062858" lon="7.783511132467538"><ele>752.5</ele></trkpt><trkpt lat="46.9345401735045" lon="7.783340135123581"><ele>747.5</ele></trkpt><trkpt lat="46.934750171378255" lon="7.783291129861027"><ele>745.3999938964844</ele></trkpt><trkpt lat="46.934931171126664" lon="7.783280127681792"><ele>743.2999877929688</ele></trkpt><trkpt lat="46.93497017445043" lon="7.783250133506954"><ele>742.6999816894531</ele></trkpt><trkpt lat="46.93501017661765" lon="7.783160130959004"><ele>741.7999877929688</ele></trkpt><trkpt lat="46.935220174025744" lon="7.783240137156099"><ele>741.5</ele></trkpt><trkpt lat="46.935520173981786" lon="7.7833901243284345"><ele>736.5</ele></trkpt><trkpt lat="46.93567017139867" lon="7.783000130672008"><ele>734.6999816894531</ele></trkpt><trkpt lat="46.935741170309484" lon="7.78285012440756"><ele>728.5</ele></trkpt><trkpt lat="46.93626017216593" lon="7.7819001311436296"><ele>722.0</ele></trkpt><trkpt lat="46.93625016557053" lon="7.781510133296251"><ele>721.2999877929688</ele></trkpt><trkpt lat="46.93630016595125" lon="7.781400124542415"><ele>721.1999816894531</ele></trkpt><trkpt lat="46.93648016359657" lon="7.781330130528659"><ele>720.6999816894531</ele></trkpt><trkpt lat="46.9365401645191" lon="7.781290129292756"><ele>720.5999755859375</ele></trkpt><trkpt lat="46.93707016436383" lon="7.780660131480545"><ele>717.0</ele></trkpt><trkpt lat="46.937780159991235" lon="7.780010130256414"><ele>703.7999877929688</ele></trkpt><trkpt lat="46.93821015767753" lon="7.779750126414001"><ele>689.2999877929688</ele></trkpt><trkpt lat="46.9383401600644" lon="7.779640119057149"><ele>687.2999877929688</ele></trkpt><trkpt lat="46.938450165092945" lon="7.779500119853765"><ele>686.6999816894531</ele></trkpt><trkpt lat="46.93849016353488" lon="7.779380125924945"><ele>685.6999816894531</ele></trkpt><trkpt lat="46.93864016328007" lon="7.779100116342306"><ele>685.7999877929688</ele></trkpt><trkpt lat="46.93867016443983" lon="7.77899011829868"><ele>685.2999877929688</ele></trkpt><trkpt lat="46.939020154066384" lon="7.7783601176925"><ele>670.6999816894531</ele></trkpt><trkpt lat="46.939070153515786" lon="7.778310119174421"><ele>670.0999755859375</ele></trkpt><trkpt lat="46.93907015584409" lon="7.778440126217902"><ele>670.5</ele></trkpt><trkpt lat="46.939090156927705" lon="7.778490119148046"><ele>670.2999877929688</ele></trkpt><trkpt lat="46.93915015505627" lon="7.778560117818415"><ele>670.2999877929688</ele></trkpt><trkpt lat="46.939280156977475" lon="7.7783801183104515"><ele>669.8999938964844</ele></trkpt><trkpt lat="46.93936015525833" lon="7.778160113841295"><ele>670.0</ele></trkpt><trkpt lat="46.93942016037181" lon="7.778100117575377"><ele>669.8999938964844</ele></trkpt><trkpt lat="46.93953015608713" lon="7.778680126182735"><ele>670.2999877929688</ele></trkpt><trkpt lat="46.93954015849158" lon="7.779020121786743"><ele>670.7999877929688</ele></trkpt><trkpt lat="46.93948016082868" lon="7.779050120152533"><ele>670.6999816894531</ele></trkpt><trkpt lat="46.939470153767616" lon="7.77910012146458"><ele>670.6999816894531</ele></trkpt><trkpt lat="46.9394801533781" lon="7.779180114623159"><ele>670.6999816894531</ele></trkpt><trkpt lat="46.93933015689254" lon="7.779371123295277"><ele>670.1999816894531</ele></trkpt><trkpt lat="46.93927015410736" lon="7.779530116822571"><ele>670.0999755859375</ele></trkpt><trkpt lat="46.93933015316725" lon="7.779660122934729"><ele>669.8999938964844</ele></trkpt><trkpt lat="46.93947015795857" lon="7.780521116219461"><ele>669.5</ele></trkpt><trkpt lat="46.93948015756905" lon="7.780670125503093"><ele>669.3999938964844</ele></trkpt><trkpt lat="46.939461160451174" lon="7.7808901206590235"><ele>669.3999938964844</ele></trkpt><trkpt lat="46.93937016138807" lon="7.782210117205977"><ele>671.0</ele></trkpt><trkpt lat="46.93938115751371" lon="7.7823801203630865"><ele>671.3999938964844</ele></trkpt><trkpt lat="46.93946015415713" lon="7.782530122436583"><ele>671.7999877929688</ele></trkpt><trkpt lat="46.93948115548119" lon="7.782621126621962"><ele>672.0999755859375</ele></trkpt><trkpt lat="46.939360154327005" lon="7.782860116567463"><ele>671.5</ele></trkpt><trkpt lat="46.93926015961915" lon="7.78302012430504"><ele>671.2999877929688</ele></trkpt><trkpt lat="46.939370153006166" lon="7.7831401182338595"><ele>670.2999877929688</ele></trkpt><trkpt lat="46.93970016064122" lon="7.783560122828931"><ele>668.1999816894531</ele></trkpt><trkpt lat="46.93957015732303" lon="7.7837711200118065"><ele>673.0999755859375</ele></trkpt><trkpt lat="46.939610161818564" lon="7.783821125514805"><ele>672.6999816894531</ele></trkpt><trkpt lat="46.9394901599735" lon="7.784020115621388"><ele>673.1999816894531</ele></trkpt><trkpt lat="46.93947016214952" lon="7.784140118863434"><ele>673.0999755859375</ele></trkpt><trkpt lat="46.939470160752535" lon="7.784251122269779"><ele>673.1999816894531</ele></trkpt><trkpt lat="46.93939015548676" lon="7.784350120462477"><ele>673.1999816894531</ele></trkpt><trkpt lat="46.939100158866495" lon="7.784800123423338"><ele>673.2999877929688</ele></trkpt><trkpt lat="46.93897016206756" lon="7.784620123449713"><ele>673.5</ele></trkpt><trkpt lat="46.93929015472531" lon="7.784060123376548"><ele>669.5999755859375</ele></trkpt><trkpt lat="46.93929315591231" lon="7.784067116677761"><ele>669.5999755859375</ele></trkpt></trkseg></trk></gpx>